BEIDOU-2 IGSO-1 (C06)   
1 36828U 10036A   24028.85118854 -.00000110  00000+0  00000+0 0  9994
2 36828  54.2470 170.8384 0038844 192.9217 178.7396  1.00267809 49502
BEIDOU-2 G4 (C04)       
1 37210U 10057A   24029.58783990 -.00000102  00000+0  00000+0 0  9994
2 37210   1.5121  66.2793 0007101 198.5937 235.1596  1.00272374 48569
BEIDOU-2 IGSO-2 (C07)   
1 37256U 10068A   24029.58363262 -.00000170  00000+0  00000+0 0  9997
2 37256  49.1349 282.5195 0031257 213.4034 308.4565  1.00295598 48071
BEIDOU-2 IGSO-3 (C08)   
1 37384U 11013A   24029.51069404 -.00000154  00000+0  00000+0 0  9996
2 37384  61.1515  48.4593 0028256 184.5468 185.7985  1.00294546 46945
BEIDOU-2 IGSO-4 (C09)   
1 37763U 11038A   24029.81890946 -.00000024  00000+0  00000+0 0  9996
2 37763  54.5547 173.4124 0117888 226.7337 117.6538  1.00288512 45921
BEIDOU-2 IGSO-5 (C10)   
1 37948U 11073A   24029.68176087 -.00000124  00000+0  00000+0 0  9999
2 37948  49.2645 282.1974 0093637 220.6889 325.8172  1.00283480 44416
BEIDOU-2 G5 (C05)       
1 38091U 12008A   24030.14060881  .00000068  00000+0  00000+0 0  9991
2 38091   2.0643  70.4318 0009270 225.9271 301.8471  1.00270093 43763
BEIDOU-2 M3 (C11)       
1 38250U 12018A   24029.32428423 -.00000091  00000+0  00000+0 0  9994
2 38250  56.4281 333.9940 0023957 267.1473  92.5859  1.86231409 79742
BEIDOU-2 M4 (C12)       
1 38251U 12018B   24029.25509395 -.00000091  00000+0  00000+0 0  9995
2 38251  56.3368 333.2785 0014986 272.7550  87.0814  1.86232174 79748
BEIDOU-2 M6 (C14)       
1 38775U 12050B   24030.03867746 -.00000022  00000+0  00000+0 0  9991
2 38775  55.8020  91.8173 0012797 327.4234  32.5688  1.86231153 77479
BEIDOU-2 G6 (C02)       
1 38953U 12059A   24030.53331579 -.00000163  00000+0  00000+0 0  9999
2 38953   2.2047  81.4098 0009917 291.3403  32.5232  1.00273311 41339
BEIDOU-3S IGSO-1S (C31) 
1 40549U 15019A   24029.75144688 -.00000167  00000+0  00000+0 0  9991
2 40549  50.8308 305.8378 0035159 194.1935 354.6451  1.00280458 32356
BEIDOU-3S M2S (C58)     
1 40748U 15037A   24029.45653182 -.00000091  00000+0  00000+0 0  9999
2 40748  55.5726 331.7800 0011075 265.4993  94.3845  1.86233206 57926
BEIDOU-3S M1S (C57)     
1 40749U 15037B   24029.18984175 -.00000091  00000+0  00000+0 0  9999
2 40749  55.5759 331.7757 0006905 329.3327  30.6363  1.86233103 57925
BEIDOU-3S IGSO-2S (C56) 
1 40938U 15053A   24017.60469617 -.00000107  00000+0  00000+0 0  9998
2 40938  50.5932 269.1737 0046153 191.7705 325.9662  1.00252427 30519
BEIDOU-2 IGSO-6 (C13)   
1 41434U 16021A   24030.53612743 -.00000116  00000+0  00000+0 0  9993
2 41434  58.9678  46.7508 0049514 226.2098 141.5854  1.00255417 28769
BEIDOU-2 G7 (C03)       
1 41586U 16037A   24030.51478771 -.00000341  00000+0  00000+0 0  9997
2 41586   1.5738  67.5013 0009994 316.4712  41.0940  1.00267557 28075
BEIDOU-3 M1 (C19)       
1 43001U 17069A   24029.80486117 -.00000022  00000+0  00000+0 0  9996
2 43001  55.9526  91.9037 0011037 292.3042  67.6501  1.86231482 42416
BEIDOU-3 M2 (C20)       
1 43002U 17069B   24030.27878178 -.00000022  00000+0  00000+0 0  9992
2 43002  55.9524  91.9236 0008304 311.7814  48.2185  1.86231166 42414
BEIDOU-3 M7 (C27)       
1 43107U 18003A   24030.02878127 -.00000090  00000+0  00000+0 0  9999
2 43107  55.0297 332.4124 0003949  46.5479 313.4958  1.86232478 41171
BEIDOU-3 M8 (C28)       
1 43108U 18003B   24027.28329900 -.00000098  00000+0  00000+0 0  9992
2 43108  55.0244 332.4929 0004309 276.8342  83.1196  1.86231027 41124
BEIDOU-3 M4 (C22)       
1 43207U 18018A   24030.40985533 -.00000023  00000+0  00000+0 0  9994
2 43207  55.9120  91.9773 0005023 333.7297  26.3154  1.86231433 40567
BEIDOU-3 M3 (C21)       
1 43208U 18018B   24028.86559862 -.00000021  00000+0  00000+0 0  9992
2 43208  55.9103  92.0333 0008450 301.1281  58.8604  1.86231588 40530
BEIDOU-3 M9 (C29)       
1 43245U 18029A   24028.55073088 -.00000093  00000+0  00000+0 0  9991
2 43245  54.9194 330.1841 0001697 310.3741  49.6209  1.86232784 39681
BEIDOU-3 M10 (C30)      
1 43246U 18029B   24029.55447588 -.00000090  00000+0  00000+0 0  9990
2 43246  54.9155 330.1779 0004987 354.8608   5.1465  1.86232813 39694
BEIDOU-2 IGSO-7 (C16)   
1 43539U 18057A   24027.80118833 -.00000119  00000+0  00000+0 0  9992
2 43539  55.1367 170.6035 0069293 230.5574 124.0418  1.00296328 20395
BEIDOU-3 M5 (C23)       
1 43581U 18062A   24029.23855525  .00000063  00000+0  00000+0 0  9997
2 43581  54.1526 211.9013 0001636 347.8932  12.0958  1.86228864 37432
BEIDOU-3 M6 (C24)       
1 43582U 18062B   24028.56807786  .00000056  00000+0  00000+0 0  9991
2 43582  54.1524 211.9135 0007024  40.0474 319.9982  1.86229800 37422
BEIDOU-3 M12 (C26)      
1 43602U 18067A   24028.50299802  .00000055  00000+0  00000+0 0  9996
2 43602  54.2417 210.5845 0008173  31.3261 328.7140  1.86231700 36901
BEIDOU-3 M11 (C25)      
1 43603U 18067B   24028.63685303  .00000056  00000+0  00000+0 0  9997
2 43603  54.2387 210.5453 0004892  28.7214 331.2967  1.86231604 36937
BEIDOU-3 M13 (C32)      
1 43622U 18072A   24030.20761540 -.00000023  00000+0  00000+0 0  9993
2 43622  55.8820  91.5192 0007737 286.6509  73.3352  1.86231228 36470
BEIDOU-3 M14 (C33)      
1 43623U 18072B   24028.46221203 -.00000021  00000+0  00000+0 0  9994
2 43623  55.8827  91.5705 0004815 305.8636  54.1631  1.86231263 36439
BEIDOU-3 M16 (C35)      
1 43647U 18078A   24030.23639872 -.00000089  00000+0  00000+0 0  9993
2 43647  54.8142 330.2365 0008016   6.2980 353.7258  1.86232361 35982
BEIDOU-3 M15 (C34)      
1 43648U 18078B   24028.21770866 -.00000094  00000+0  00000+0 0  9994
2 43648  54.8114 330.3093 0004914   8.3960 351.6207  1.86232239 35968
BEIDOU-3 G1 (C59)       
1 43683U 18085A   24030.53009056 -.00000266  00000+0  00000+0 0  9996
2 43683   1.8563 115.7320 0002283 320.3333  24.0704  1.00270827 19341
BEIDOU-3 M17 (C36)      
1 43706U 18093A   24029.97698485  .00000072  00000+0  00000+0 0  9991
2 43706  54.2354 211.8043 0006257 294.1362  65.7911  1.86228476 35338
BEIDOU-3 M18 (C37)      
1 43707U 18093B   24029.84341892  .00000070  00000+0  00000+0 0  9993
2 43707  54.2362 211.8006 0005999 335.6795  24.2848  1.86229976 35346
BEIDOU-2 G8 (C01)       
1 44231U 19027A   24030.53151894 -.00000235  00000+0  00000+0 0  9997
2 44231   1.6048  72.7742 0004193 179.0025 213.2903  1.00276307 17368
BEIDOU-3 IGSO-2 (C39)   
1 44337U 19035A   24029.27549287 -.00000118  00000+0  00000+0 0  9999
2 44337  55.1690 166.4966 0031484 201.5074 338.3091  1.00284904 16941
BEIDOU-3 M24 (C46)      
1 44542U 19061A   24029.91395465  .00000072  00000+0  00000+0 0  9992
2 44542  54.4630 212.0652 0008534  12.8102 347.2047  1.86231389 29600
BEIDOU-3 M23 (C45)      
1 44543U 19061B   24028.69985189  .00000058  00000+0  00000+0 0  9999
2 44543  54.4615 212.0754 0005288  11.7196 166.3621  1.86231879 29580
BEIDOU-3 IGSO-3 (C40)   
1 44709U 19073A   24029.12314396 -.00000165  00000+0  00000+0 0  9991
2 44709  56.2857 290.2071 0034831 181.6612 178.4218  1.00292303 15731
BEIDOU-3 M22 (C44)      
1 44793U 19078A   24030.29656872 -.00000089  00000+0  00000+0 0  9992
2 44793  54.6622 330.1834 0006883  11.3671 348.6624  1.86232119 28477
BEIDOU-3 M21 (C43)      
1 44794U 19078B   24027.20503565 -.00000097  00000+0  00000+0 0  9999
2 44794  54.6382 330.2694 0004963   2.1218 357.8855  1.86232617 28413
BEIDOU-3 M19 (C41)      
1 44864U 19090A   24029.61552476 -.00000022  00000+0  00000+0 0  9991
2 44864  55.8159  91.7180 0018877 276.1463  93.3353  1.86231771 28043
BEIDOU-3 M20 (C42)      
1 44865U 19090B   24027.46484528 -.00000022  00000+0  00000+0 0  9995
2 44865  55.8162  91.8229 0016342 288.0037 169.3159  1.86231736 27988
BEIDOU-3 G2 (C60)       
1 45344U 20017A   24029.89146920 -.00000130  00000+0  00000+0 0  9999
2 45344   2.1611  23.6512 0002978 266.7422 239.1601  1.00270958 14545
BEIDOU-3 G3 (C61)       
1 45807U 20040A   24030.07925782 -.00000342  00000+0  00000+0 0  9997
2 45807   0.5997  18.1135 0009412 294.2759 315.3628  1.00279136 13369
BEIDOU-3 G4             
1 56564U 23066A   24029.61924275 -.00000100  00000+0  00000+0 0  9996
2 56564   2.4729 288.2526 0002600 222.9782   0.1400  1.00271892  2675
BEIDOU-3 M25            
1 58654U 23207A   24029.43569601 -.00000023  00000+0  00000+0 0  9997
2 58654  54.9966  91.8372 0004088 263.7352  96.2888  1.86232181   640
BEIDOU-3 M26            
1 58655U 23207B   24029.23432630 -.00000023  00000+0  00000+0 0  9997
2 58655  54.9984  91.8294 0005172 251.3546 108.6598  1.86231612   629
